{"fetched_at":"2026-03-30T20:46:33Z","count":15425,"tles":[{"name":"STARLINK-5856","line1":"1 55914U 23037A   26087.85124737  .00000093  00000+0  15622-4 0  9990","line2":"2 55914  69.9991 256.2918 0002598 269.5323  90.5538 14.98331152167041","category":"Starlink"}]}